[{"OBJECT_NAME":"HULIANWANG DIGUI-81","OBJECT_ID":"2025-187J","EPOCH":"2026-03-05T18:10:22.378944","MEAN_MOTION":13.29341425,"ECCENTRICITY":0.000106,"INCLINATION":50.0056,"RA_OF_ASC_NODE":216.7805,"ARG_OF_PERICENTER":138.6952,"MEAN_ANOMALY":221.4001,"EPHEMERIS_TYPE":0,"CLASSIFICATION_TYPE":"U","NORAD_CAT_ID":65313,"ELEMENT_SET_NO":999,"REV_AT_EPOCH":2595,"BSTAR":6.3824e-5,"MEAN_MOTION_DOT":-9.4e-7,"MEAN_MOTION_DDOT":0},{"OBJECT_NAME":"HULIANWANG DIGUI-82","OBJECT_ID":"2025-220A","EPOCH":"2026-03-05T17:44:09.098016","MEAN_MOTION":13.24421855,"ECCENTRICITY":0.0002262,"INCLINATION":86.4896,"RA_OF_ASC_NODE":78.8006,"ARG_OF_PERICENTER":100.4077,"MEAN_ANOMALY":259.7312,"EPHEMERIS_TYPE":0,"CLASSIFICATION_TYPE":"U","NORAD_CAT_ID":65817,"ELEMENT_SET_NO":999,"REV_AT_EPOCH":2122,"BSTAR":8.6503e-5,"MEAN_MOTION_DOT":5.2e-7,"MEAN_MOTION_DDOT":0},{"OBJECT_NAME":"HULIANWANG DIGUI-83","OBJECT_ID":"2025-220B","EPOCH":"2026-03-05T17:33:20.646144","MEAN_MOTION":13.24421045,"ECCENTRICITY":0.0002255,"INCLINATION":86.4919,"RA_OF_ASC_NODE":78.8335,"ARG_OF_PERICENTER":100.3554,"MEAN_ANOMALY":259.7834,"EPHEMERIS_TYPE":0,"CLASSIFICATION_TYPE":"U","NORAD_CAT_ID":65818,"ELEMENT_SET_NO":999,"REV_AT_EPOCH":2122,"BSTAR":5.2649e-5,"MEAN_MOTION_DOT":3.7e-7,"MEAN_MOTION_DDOT":0},{"OBJECT_NAME":"HULIANWANG DIGUI-84","OBJECT_ID":"2025-220C","EPOCH":"2026-03-05T17:22:25.553568","MEAN_MOTION":13.24421512,"ECCENTRICITY":0.0002248,"INCLINATION":86.4856,"RA_OF_ASC_NODE":78.7268,"ARG_OF_PERICENTER":99.5671,"MEAN_ANOMALY":260.5717,"EPHEMERIS_TYPE":0,"CLASSIFICATION_TYPE":"U","NORAD_CAT_ID":65819,"ELEMENT_SET_NO":999,"REV_AT_EPOCH":2122,"BSTAR":4.3692e-5,"MEAN_MOTION_DOT":3.3e-7,"MEAN_MOTION_DDOT":0},{"OBJECT_NAME":"HULIANWANG DIGUI-85","OBJECT_ID":"2025-220D","EPOCH":"2026-03-05T17:11:28.825440","MEAN_MOTION":13.24422027,"ECCENTRICITY":0.0002241,"INCLINATION":86.4917,"RA_OF_ASC_NODE":78.8237,"ARG_OF_PERICENTER":100.8723,"MEAN_ANOMALY":259.2663,"EPHEMERIS_TYPE":0,"CLASSIFICATION_TYPE":"U","NORAD_CAT_ID":65820,"ELEMENT_SET_NO":999,"REV_AT_EPOCH":2122,"BSTAR":1.0978e-5,"MEAN_MOTION_DOT":1.9e-7,"MEAN_MOTION_DDOT":0},{"OBJECT_NAME":"HULIANWANG DIGUI-86","OBJECT_ID":"2025-220E","EPOCH":"2026-03-05T18:49:31.042848","MEAN_MOTION":13.24420907,"ECCENTRICITY":0.0002241,"INCLINATION":86.4896,"RA_OF_ASC_NODE":78.7593,"ARG_OF_PERICENTER":100.313,"MEAN_ANOMALY":259.8257,"EPHEMERIS_TYPE":0,"CLASSIFICATION_TYPE":"U","NORAD_CAT_ID":65821,"ELEMENT_SET_NO":999,"REV_AT_EPOCH":2123,"BSTAR":2.5123e-5,"MEAN_MOTION_DOT":2.5e-7,"MEAN_MOTION_DDOT":0},{"OBJECT_NAME":"HULIANWANG DIGUI-87","OBJECT_ID":"2025-231A","EPOCH":"2026-03-05T17:14:31.939008","MEAN_MOTION":13.29330259,"ECCENTRICITY":6.07e-5,"INCLINATION":49.9991,"RA_OF_ASC_NODE":186.967,"ARG_OF_PERICENTER":184.7397,"MEAN_ANOMALY":175.347,"EPHEMERIS_TYPE":0,"CLASSIFICATION_TYPE":"U","NORAD_CAT_ID":65995,"ELEMENT_SET_NO":999,"REV_AT_EPOCH":1912,"BSTAR":6.9773e-5,"MEAN_MOTION_DOT":-9.2e-7,"MEAN_MOTION_DDOT":0},{"OBJECT_NAME":"HULIANWANG DIGUI-88","OBJECT_ID":"2025-231B","EPOCH":"2026-03-05T17:26:35.629728","MEAN_MOTION":13.29329384,"ECCENTRICITY":6.29e-5,"INCLINATION":49.9977,"RA_OF_ASC_NODE":186.9969,"ARG_OF_PERICENTER":190.1927,"MEAN_ANOMALY":169.8932,"EPHEMERIS_TYPE":0,"CLASSIFICATION_TYPE":"U","NORAD_CAT_ID":65996,"ELEMENT_SET_NO":999,"REV_AT_EPOCH":1912,"BSTAR":9.4304e-5,"MEAN_MOTION_DOT":-8.0e-7,"MEAN_MOTION_DDOT":0},{"OBJECT_NAME":"HULIANWANG DIGUI-89","OBJECT_ID":"2025-231C","EPOCH":"2026-03-05T17:02:30.015168","MEAN_MOTION":13.29329975,"ECCENTRICITY":6.39e-5,"INCLINATION":49.9955,"RA_OF_ASC_NODE":186.884,"ARG_OF_PERICENTER":190.9949,"MEAN_ANOMALY":169.0909,"EPHEMERIS_TYPE":0,"CLASSIFICATION_TYPE":"U","NORAD_CAT_ID":65997,"ELEMENT_SET_NO":999,"REV_AT_EPOCH":1912,"BSTAR":0.00010159,"MEAN_MOTION_DOT":-7.7e-7,"MEAN_MOTION_DDOT":0},{"OBJECT_NAME":"HULIANWANG DIGUI-90","OBJECT_ID":"2025-231D","EPOCH":"2026-03-05T16:50:28.245120","MEAN_MOTION":13.29330107,"ECCENTRICITY":6.1e-5,"INCLINATION":49.9984,"RA_OF_ASC_NODE":186.874,"ARG_OF_PERICENTER":191.8033,"MEAN_ANOMALY":168.2825,"EPHEMERIS_TYPE":0,"CLASSIFICATION_TYPE":"U","NORAD_CAT_ID":65998,"ELEMENT_SET_NO":999,"REV_AT_EPOCH":1912,"BSTAR":7.9074e-5,"MEAN_MOTION_DOT":-8.7e-7,"MEAN_MOTION_DDOT":0},{"OBJECT_NAME":"HULIANWANG DIGUI-91","OBJECT_ID":"2025-231E","EPOCH":"2026-03-05T18:26:42.161856","MEAN_MOTION":13.29330063,"ECCENTRICITY":6.25e-5,"INCLINATION":50.0003,"RA_OF_ASC_NODE":186.5851,"ARG_OF_PERICENTER":190.7259,"MEAN_ANOMALY":169.3599,"EPHEMERIS_TYPE":0,"CLASSIFICATION_TYPE":"U","NORAD_CAT_ID":65999,"ELEMENT_SET_NO":999,"REV_AT_EPOCH":1913,"BSTAR":7.7803e-5,"MEAN_MOTION_DOT":-8.8e-7,"MEAN_MOTION_DDOT":0},{"OBJECT_NAME":"HULIANWANG DIGUI-92","OBJECT_ID":"2025-231F","EPOCH":"2026-03-05T18:14:39.540768","MEAN_MOTION":13.29330606,"ECCENTRICITY":6.26e-5,"INCLINATION":50.0044,"RA_OF_ASC_NODE":186.5869,"ARG_OF_PERICENTER":191.4047,"MEAN_ANOMALY":168.6811,"EPHEMERIS_TYPE":0,"CLASSIFICATION_TYPE":"U","NORAD_CAT_ID":66000,"ELEMENT_SET_NO":999,"REV_AT_EPOCH":1913,"BSTAR":8.2891e-5,"MEAN_MOTION_DOT":-8.6e-7,"MEAN_MOTION_DDOT":0},{"OBJECT_NAME":"HULIANWANG DIGUI-93","OBJECT_ID":"2025-231G","EPOCH":"2026-03-05T16:02:23.561664","MEAN_MOTION":13.29329711,"ECCENTRICITY":6.12e-5,"INCLINATION":50.0011,"RA_OF_ASC_NODE":186.7367,"ARG_OF_PERICENTER":190.3653,"MEAN_ANOMALY":169.7206,"EPHEMERIS_TYPE":0,"CLASSIFICATION_TYPE":"U","NORAD_CAT_ID":66001,"ELEMENT_SET_NO":999,"REV_AT_EPOCH":1912,"BSTAR":8.436e-5,"MEAN_MOTION_DOT":-8.5e-7,"MEAN_MOTION_DDOT":0},{"OBJECT_NAME":"HULIANWANG DIGUI-94","OBJECT_ID":"2025-231H","EPOCH":"2026-03-05T18:02:37.967712","MEAN_MOTION":13.29330859,"ECCENTRICITY":6.29e-5,"INCLINATION":50.005,"RA_OF_ASC_NODE":186.5551,"ARG_OF_PERICENTER":191.9354,"MEAN_ANOMALY":168.1504,"EPHEMERIS_TYPE":0,"CLASSIFICATION_TYPE":"U","NORAD_CAT_ID":66002,"ELEMENT_SET_NO":999,"REV_AT_EPOCH":1913,"BSTAR":8.4035e-5,"MEAN_MOTION_DOT":-8.5e-7,"MEAN_MOTION_DDOT":0},{"OBJECT_NAME":"HULIANWANG DIGUI-95","OBJECT_ID":"2025-231J","EPOCH":"2026-03-05T17:38:49.867296","MEAN_MOTION":13.29325832,"ECCENTRICITY":6.33e-5,"INCLINATION":50.0023,"RA_OF_ASC_NODE":186.4386,"ARG_OF_PERICENTER":188.9861,"MEAN_ANOMALY":171.1,"EPHEMERIS_TYPE":0,"CLASSIFICATION_TYPE":"U","NORAD_CAT_ID":66003,"ELEMENT_SET_NO":999,"REV_AT_EPOCH":1913,"BSTAR":8.8718e-5,"MEAN_MOTION_DOT":-8.3e-7,"MEAN_MOTION_DDOT":0},{"OBJECT_NAME":"HULIANWANG DIGUI-96","OBJECT_ID":"2025-258A","EPOCH":"2026-03-05T16:24:23.165280","MEAN_MOTION":13.29331498,"ECCENTRICITY":3.97e-5,"INCLINATION":50.0049,"RA_OF_ASC_NODE":306.858,"ARG_OF_PERICENTER":99.0501,"MEAN_ANOMALY":261.0416,"EPHEMERIS_TYPE":0,"CLASSIFICATION_TYPE":"U","NORAD_CAT_ID":66412,"ELEMENT_SET_NO":999,"REV_AT_EPOCH":1596,"BSTAR":0.0001441,"MEAN_MOTION_DOT":-5.7e-7,"MEAN_MOTION_DDOT":0}]
